[{"OBJECT_NAME":"STARLINK-36250","OBJECT_ID":"2026-068F","EPOCH":"2026-04-10T05:03:13.606560","MEAN_MOTION":15.80970982,"ECCENTRICITY":6.776e-5,"INCLINATION":53.1605,"RA_OF_ASC_NODE":351.3181,"ARG_OF_PERICENTER":52.2583,"MEAN_ANOMALY":307.8501,"EPHEMERIS_TYPE":0,"CLASSIFICATION_TYPE":"U","NORAD_CAT_ID":68513,"ELEMENT_SET_NO":999,"REV_AT_EPOCH":165,"BSTAR":0.0014257767,"MEAN_MOTION_DOT":0.00291739,"MEAN_MOTION_DDOT":0},{"OBJECT_NAME":"STARLINK-37251","OBJECT_ID":"2026-068G","EPOCH":"2026-04-10T05:02:08.880864","MEAN_MOTION":15.8097155,"ECCENTRICITY":7.614e-5,"INCLINATION":53.161,"RA_OF_ASC_NODE":351.3132,"ARG_OF_PERICENTER":75.9806,"MEAN_ANOMALY":284.1301,"EPHEMERIS_TYPE":0,"CLASSIFICATION_TYPE":"U","NORAD_CAT_ID":68514,"ELEMENT_SET_NO":999,"REV_AT_EPOCH":165,"BSTAR":0.0017070596,"MEAN_MOTION_DOT":0.00351921,"MEAN_MOTION_DDOT":0},{"OBJECT_NAME":"STARLINK-36293","OBJECT_ID":"2026-068H","EPOCH":"2026-04-10T06:32:06.383040","MEAN_MOTION":15.80946879,"ECCENTRICITY":0.00011148,"INCLINATION":53.1608,"RA_OF_ASC_NODE":350.9912,"ARG_OF_PERICENTER":68.0371,"MEAN_ANOMALY":292.077,"EPHEMERIS_TYPE":0,"CLASSIFICATION_TYPE":"U","NORAD_CAT_ID":68515,"ELEMENT_SET_NO":999,"REV_AT_EPOCH":166,"BSTAR":0.00049803092,"MEAN_MOTION_DOT":0.00099068,"MEAN_MOTION_DDOT":0},{"OBJECT_NAME":"STARLINK-36290","OBJECT_ID":"2026-068J","EPOCH":"2026-04-10T06:31:01.446528","MEAN_MOTION":15.80956916,"ECCENTRICITY":9.124e-5,"INCLINATION":53.1608,"RA_OF_ASC_NODE":350.9863,"ARG_OF_PERICENTER":24.1005,"MEAN_ANOMALY":336.0061,"EPHEMERIS_TYPE":0,"CLASSIFICATION_TYPE":"U","NORAD_CAT_ID":68516,"ELEMENT_SET_NO":999,"REV_AT_EPOCH":166,"BSTAR":-6.786842e-6,"MEAN_MOTION_DOT":-2.044e-5,"MEAN_MOTION_DDOT":0},{"OBJECT_NAME":"STARLINK-36298","OBJECT_ID":"2026-068K","EPOCH":"2026-04-10T06:29:55.716000","MEAN_MOTION":15.81217436,"ECCENTRICITY":0.00057096,"INCLINATION":53.1611,"RA_OF_ASC_NODE":350.9794,"ARG_OF_PERICENTER":43.1642,"MEAN_ANOMALY":316.9828,"EPHEMERIS_TYPE":0,"CLASSIFICATION_TYPE":"U","NORAD_CAT_ID":68517,"ELEMENT_SET_NO":999,"REV_AT_EPOCH":166,"BSTAR":0.0023867049,"MEAN_MOTION_DOT":0.00507232,"MEAN_MOTION_DDOT":0},{"OBJECT_NAME":"STARLINK-36857","OBJECT_ID":"2026-068L","EPOCH":"2026-04-10T06:27:47.046528","MEAN_MOTION":15.81056235,"ECCENTRICITY":0.00016513,"INCLINATION":53.1604,"RA_OF_ASC_NODE":350.9719,"ARG_OF_PERICENTER":31.4911,"MEAN_ANOMALY":328.621,"EPHEMERIS_TYPE":0,"CLASSIFICATION_TYPE":"U","NORAD_CAT_ID":68518,"ELEMENT_SET_NO":999,"REV_AT_EPOCH":166,"BSTAR":-0.0024207075,"MEAN_MOTION_DOT":-0.00457961,"MEAN_MOTION_DDOT":0},{"OBJECT_NAME":"STARLINK-36326","OBJECT_ID":"2026-068M","EPOCH":"2026-04-10T06:28:51.160512","MEAN_MOTION":15.81033072,"ECCENTRICITY":5.086e-5,"INCLINATION":53.1609,"RA_OF_ASC_NODE":350.9758,"ARG_OF_PERICENTER":147.2531,"MEAN_ANOMALY":212.8524,"EPHEMERIS_TYPE":0,"CLASSIFICATION_TYPE":"U","NORAD_CAT_ID":68519,"ELEMENT_SET_NO":999,"REV_AT_EPOCH":166,"BSTAR":-0.0010089484,"MEAN_MOTION_DOT":-0.00196799,"MEAN_MOTION_DDOT":0},{"OBJECT_NAME":"STARLINK-37126","OBJECT_ID":"2026-068N","EPOCH":"2026-04-10T06:26:40.964352","MEAN_MOTION":15.81219672,"ECCENTRICITY":9.31e-5,"INCLINATION":53.1603,"RA_OF_ASC_NODE":350.9653,"ARG_OF_PERICENTER":161.711,"MEAN_ANOMALY":198.3947,"EPHEMERIS_TYPE":0,"CLASSIFICATION_TYPE":"U","NORAD_CAT_ID":68520,"ELEMENT_SET_NO":999,"REV_AT_EPOCH":166,"BSTAR":-0.0023543757,"MEAN_MOTION_DOT":-0.00449184,"MEAN_MOTION_DDOT":0},{"OBJECT_NAME":"STARLINK-36347","OBJECT_ID":"2026-068P","EPOCH":"2026-04-10T06:25:35.537952","MEAN_MOTION":15.81311292,"ECCENTRICITY":0.00032242,"INCLINATION":53.1601,"RA_OF_ASC_NODE":350.9606,"ARG_OF_PERICENTER":210.0935,"MEAN_ANOMALY":149.9903,"EPHEMERIS_TYPE":0,"CLASSIFICATION_TYPE":"U","NORAD_CAT_ID":68521,"ELEMENT_SET_NO":999,"REV_AT_EPOCH":166,"BSTAR":-0.0029754412,"MEAN_MOTION_DOT":-0.0056304,"MEAN_MOTION_DDOT":0},{"OBJECT_NAME":"STARLINK-36322","OBJECT_ID":"2026-068Q","EPOCH":"2026-04-10T06:24:29.664864","MEAN_MOTION":15.81482177,"ECCENTRICITY":0.0006014,"INCLINATION":53.1601,"RA_OF_ASC_NODE":350.9566,"ARG_OF_PERICENTER":216.3055,"MEAN_ANOMALY":143.7561,"EPHEMERIS_TYPE":0,"CLASSIFICATION_TYPE":"U","NORAD_CAT_ID":68522,"ELEMENT_SET_NO":999,"REV_AT_EPOCH":166,"BSTAR":-0.0038457502,"MEAN_MOTION_DOT":-0.00721498,"MEAN_MOTION_DDOT":0},{"OBJECT_NAME":"STARLINK-37208","OBJECT_ID":"2026-068R","EPOCH":"2026-04-10T06:23:25.255392","MEAN_MOTION":15.81565809,"ECCENTRICITY":0.00047243,"INCLINATION":53.1604,"RA_OF_ASC_NODE":350.9511,"ARG_OF_PERICENTER":220.211,"MEAN_ANOMALY":139.8564,"EPHEMERIS_TYPE":0,"CLASSIFICATION_TYPE":"U","NORAD_CAT_ID":68523,"ELEMENT_SET_NO":999,"REV_AT_EPOCH":166,"BSTAR":-0.0037083932,"MEAN_MOTION_DOT":-0.00699607,"MEAN_MOTION_DDOT":0},{"OBJECT_NAME":"STARLINK-36302","OBJECT_ID":"2026-068S","EPOCH":"2026-04-10T06:22:20.915904","MEAN_MOTION":15.8175244,"ECCENTRICITY":0.00052155,"INCLINATION":53.1603,"RA_OF_ASC_NODE":350.9461,"ARG_OF_PERICENTER":212.9724,"MEAN_ANOMALY":147.0974,"EPHEMERIS_TYPE":0,"CLASSIFICATION_TYPE":"U","NORAD_CAT_ID":68524,"ELEMENT_SET_NO":999,"REV_AT_EPOCH":166,"BSTAR":-0.0034618726,"MEAN_MOTION_DOT":-0.00661898,"MEAN_MOTION_DDOT":0},{"OBJECT_NAME":"STARLINK-36311","OBJECT_ID":"2026-068T","EPOCH":"2026-04-10T06:20:12.424416","MEAN_MOTION":15.82073141,"ECCENTRICITY":0.00047421,"INCLINATION":53.1607,"RA_OF_ASC_NODE":350.9362,"ARG_OF_PERICENTER":223.2503,"MEAN_ANOMALY":136.8149,"EPHEMERIS_TYPE":0,"CLASSIFICATION_TYPE":"U","NORAD_CAT_ID":68525,"ELEMENT_SET_NO":999,"REV_AT_EPOCH":166,"BSTAR":-0.0045517531,"MEAN_MOTION_DOT":-0.00862979,"MEAN_MOTION_DDOT":0},{"OBJECT_NAME":"STARLINK-37178","OBJECT_ID":"2026-068U","EPOCH":"2026-04-10T04:50:17.337120","MEAN_MOTION":15.82448529,"ECCENTRICITY":0.00064564,"INCLINATION":53.1605,"RA_OF_ASC_NODE":351.257,"ARG_OF_PERICENTER":42.2203,"MEAN_ANOMALY":317.9317,"EPHEMERIS_TYPE":0,"CLASSIFICATION_TYPE":"U","NORAD_CAT_ID":68526,"ELEMENT_SET_NO":999,"REV_AT_EPOCH":165,"BSTAR":0.0022512784,"MEAN_MOTION_DOT":0.00506595,"MEAN_MOTION_DDOT":0},{"OBJECT_NAME":"STARLINK-37248","OBJECT_ID":"2026-068V","EPOCH":"2026-04-10T04:48:10.251360","MEAN_MOTION":15.82651588,"ECCENTRICITY":0.00069904,"INCLINATION":53.1605,"RA_OF_ASC_NODE":351.248,"ARG_OF_PERICENTER":44.3872,"MEAN_ANOMALY":315.7711,"EPHEMERIS_TYPE":0,"CLASSIFICATION_TYPE":"U","NORAD_CAT_ID":68527,"ELEMENT_SET_NO":999,"REV_AT_EPOCH":165,"BSTAR":0.0019906517,"MEAN_MOTION_DOT":0.00449241,"MEAN_MOTION_DDOT":0},{"OBJECT_NAME":"STARLINK-37241","OBJECT_ID":"2026-068W","EPOCH":"2026-04-10T04:46:05.427552","MEAN_MOTION":15.83004257,"ECCENTRICITY":0.00066734,"INCLINATION":53.1603,"RA_OF_ASC_NODE":351.2381,"ARG_OF_PERICENTER":43.3892,"MEAN_ANOMALY":316.7656,"EPHEMERIS_TYPE":0,"CLASSIFICATION_TYPE":"U","NORAD_CAT_ID":68528,"ELEMENT_SET_NO":999,"REV_AT_EPOCH":165,"BSTAR":0.0019367176,"MEAN_MOTION_DOT":0.00444026,"MEAN_MOTION_DDOT":0}]
