STARLINK-36250          
1 68513U 26068F   26100.21057415  .00291739  00000+0  14258-2 0  9991
2 68513  53.1605 351.3181 0000677  52.2583 307.8501 15.80970982  1657
STARLINK-37251          
1 68514U 26068G   26100.20982501  .00351921  00000+0  17071-2 0  9990
2 68514  53.1610 351.3132 0000761  75.9806 284.1301 15.80971550  1651
STARLINK-36293          
1 68515U 26068H   26100.27229610  .00099068  00000+0  49803-3 0  9993
2 68515  53.1608 350.9912 0001114  68.0371 292.0770 15.80946879  1668
STARLINK-36290          
1 68516U 26068J   26100.27154452 -.00002044  00000+0 -67868-5 0  9998
2 68516  53.1608 350.9863 0000912  24.1005 336.0061 15.80956916  1661
STARLINK-36298          
1 68517U 26068K   26100.27078375  .00507232  00000+0  23867-2 0  9993
2 68517  53.1611 350.9794 0005709  43.1642 316.9828 15.81217436  1662
STARLINK-36857          
1 68518U 26068L   26100.26929452 -.00457961  00000+0 -24207-2 0  9998
2 68518  53.1604 350.9719 0001651  31.4911 328.6210 15.81056235  1666
STARLINK-36326          
1 68519U 26068M   26100.27003658 -.00196799  00000+0 -10089-2 0  9993
2 68519  53.1609 350.9758 0000508 147.2531 212.8524 15.81033072  1665
STARLINK-37126          
1 68520U 26068N   26100.26852968 -.00449184  00000+0 -23544-2 0  9999
2 68520  53.1603 350.9653 0000931 161.7110 198.3947 15.81219672  1668
STARLINK-36347          
1 68521U 26068P   26100.26777243 -.00563040  00000+0 -29754-2 0  9999
2 68521  53.1601 350.9606 0003224 210.0935 149.9903 15.81311292  1661
STARLINK-36322          
1 68522U 26068Q   26100.26701001 -.00721498  00000+0 -38458-2 0  9993
2 68522  53.1601 350.9566 0006014 216.3055 143.7561 15.81482177  1662
STARLINK-37208          
1 68523U 26068R   26100.26626453 -.00699607  00000+0 -37084-2 0  9991
2 68523  53.1604 350.9511 0004724 220.2110 139.8564 15.81565809  1661
STARLINK-36302          
1 68524U 26068S   26100.26551986 -.00661898  00000+0 -34619-2 0  9992
2 68524  53.1603 350.9461 0005215 212.9724 147.0974 15.81752440  1665
STARLINK-36311          
1 68525U 26068T   26100.26403269 -.00862979  00000+0 -45518-2 0  9996
2 68525  53.1607 350.9362 0004742 223.2503 136.8149 15.82073141  1669
STARLINK-37178          
1 68526U 26068U   26100.20158955  .00506595  00000+0  22513-2 0  9997
2 68526  53.1605 351.2570 0006456  42.2203 317.9317 15.82448529  1657
STARLINK-37248          
1 68527U 26068V   26100.20011865  .00449241  00000+0  19907-2 0  9993
2 68527  53.1605 351.2480 0006990  44.3872 315.7711 15.82651588  1651
STARLINK-37241          
1 68528U 26068W   26100.19867393  .00444026  00000+0  19367-2 0  9993
2 68528  53.1603 351.2381 0006673  43.3892 316.7656 15.83004257  1654
